STARLINK-36950          
1 67992U 26039G   26066.58334491 -.01623325  72827-3 -49334-2 0  9998
2 67992  42.9974  67.9003 0001698 267.4216 345.0910 15.91223232  2539
STARLINK-36975          
1 67993U 26039H   26066.58334491 -.01612692  72055-3 -48630-2 0  9995
2 67993  42.9973  67.8937 0001651 269.1124 346.0263 15.91372875  2530
STARLINK-36993          
1 67994U 26039J   26066.58334491 -.01618056  72599-3 -48426-2 0  9992
2 67994  42.9974  67.8869 0001772 267.5945 350.3643 15.91518963  2533
STARLINK-36968          
1 67995U 26039K   26066.58334491 -.01632045  73922-3 -48274-2 0  9999
2 67995  42.9975  67.8697 0001770 265.6254 359.0079 15.91747966  2530
STARLINK-36979          
1 67996U 26039L   26066.58334491 -.01626825  73380-3 -48497-2 0  9994
2 67996  42.9972  67.8763 0001773 266.9250 355.0436 15.91596115  2536
STARLINK-36994          
1 67997U 26039M   26066.58334491 -.01637409  74571-3 -47742-2 0  9990
2 67997  42.9974  67.8548 0001479 266.6690   3.6800 15.92025742  2533
STARLINK-36988          
1 67998U 26039N   26066.58334491 -.01626119  73520-3 -47778-2 0  9999
2 67998  42.9974  67.8620 0001795 267.1403   0.5181 15.91875702  2530
STARLINK-36926          
1 67999U 26039P   26066.58334491 -.01632213  74237-3 -47241-2 0  9993
2 67999  42.9974  67.8482 0001753 268.5524   4.5769 15.92165746  2537
STARLINK-36931          
1 68000U 26039Q   26066.58334491 -.01630878  74236-3 -46823-2 0  9996
2 68000  42.9976  67.8424 0001755 266.6691   8.7802 15.92320227  2536
STARLINK-36903          
1 68001U 26039R   26066.58334491 -.01619010  73339-3 -46157-2 0  9995
2 68001  42.9976  67.8353 0001798 267.7725  10.5055 15.92452794  2531
STARLINK-36898          
1 68002U 26039S   26066.58334491 -.01611832  72937-3 -45294-2 0  9994
2 68002  42.9975  67.8213 0001817 269.3200  14.3367 15.92726809  2533
STARLINK-36862          
1 68003U 26039T   26066.58334491 -.01589087  71233-3 -44048-2 0  9995
2 68003  42.9975  67.8085 0001638 278.7007  10.0427 15.92984240  2536
STARLINK-36888          
1 68004U 26039U   26066.58334491 -.01616261  73210-3 -45740-2 0  9998
2 68004  42.9977  67.8289 0001796 269.1939  11.6987 15.92592897  2539
STARLINK-36910          
1 68005U 26039V   26066.58334491 -.01607560  72679-3 -44847-2 0  9996
2 68005  42.9975  67.8147 0001801 270.2537  16.0594 15.92864430  2533
STARLINK-36889          
1 68006U 26039W   26066.58334491 -.01600275  72274-3 -43984-2 0  9995
2 68006  42.9975  67.8018 0001830 271.1415  20.0815 15.93146148  2539
STARLINK-36592          
1 68007U 26039X   26066.58334491 -.01604544  72730-3 -43778-2 0  9997
2 68007  42.9972  67.7960 0001713 269.0977  24.6174 15.93286747  2539
STARLINK-36911          
1 68008U 26039Y   26066.58334491 -.01583324  71058-3 -42901-2 0  9999
2 68008  42.9975  67.7894 0001905 269.8269  26.5005 15.93413653  2536
STARLINK-36956          
1 68009U 26039Z   26066.58334491 -.01591792  71861-3 -42810-2 0  9999
2 68009  42.9972  67.7829 0001702 269.0641  29.7626 15.93556560  2532
STARLINK-36953          
1 68010U 26039AA  26066.58334491 -.01584821  71468-3 -42032-2 0  9995
2 68010  42.9971  67.7689 0001835 271.1856  33.0241 15.93818015  2533
STARLINK-36991          
1 68011U 26039AB  26066.58334491 -.01575141  70757-3 -41486-2 0  9993
2 68011  42.9971  67.7625 0001856 270.3451  36.5063 15.93946819  2533
STARLINK-36936          
1 68012U 26039AC  26066.58334491 -.01607344  73650-3 -41715-2 0  9995
2 68012  42.9971  67.7487 0001703 266.1561  45.8872 15.94228779  2536
STARLINK-36967          
1 68013U 26039AD  26066.58334491 -.01593222  72076-3 -42542-2 0  9995
2 68013  42.9970  67.7757 0001790 269.3071  32.1384 15.93691980  2537
STARLINK-36985          
1 68014U 26039AE  26066.58334491 -.01594033  72431-3 -41670-2 0  9993
2 68014  42.9971  67.7560 0001759 270.9452  38.4271 15.94090713  2539
STARLINK-36335          
1 68015U 26040A   26066.58334491 -.00880837  28859-3 -10185-2 0  9997
2 68015  97.2827  14.5473 0001200  95.5938  84.3867 16.08942491  2038
STARLINK-36923          
1 68016U 26040B   26066.58334491 -.00860809  27737-3 -98091-3 0  9992
2 68016  97.2828  14.5488 0001101  92.2971  90.9187 16.09168907  2083
STARLINK-36568          
1 68017U 26040C   26066.58334491 -.00868183  28219-3 -98247-3 0  9995
2 68017  97.2827  14.5495 0001087  91.4271  93.2804 16.09278360  2085
STARLINK-36930          
1 68018U 26040D   26066.58334491 -.00872115  28373-3 -10011-2 0  9999
2 68018  97.2826  14.5482 0001029 101.7998  79.7932 16.09055850  2086
STARLINK-36921          
1 68019U 26040E   26066.58334491 -.00863153  27983-3 -96526-3 0  9994
2 68019  97.2828  14.5508 0001162 101.7587  85.6724 16.09462245  2085
STARLINK-36928          
1 68020U 26040F   26066.58334491 -.00862719  27917-3 -97160-3 0  9995
2 68020  97.2824  14.5498 0001114  97.3335  88.5566 16.09352552  2084
STARLINK-36858          
1 68021U 26040G   26066.58334491 -.00871294  28514-3 -96765-3 0  9998
2 68021  97.2821  14.5508 0001161 103.5000  85.3687 16.09570881  2081
STARLINK-36916          
1 68022U 26040H   26066.58334491 -.00865191  28188-3 -95370-3 0  9996
2 68022  97.2824  14.5520 0001175 100.1633  90.3307 16.09686245  2086
STARLINK-36871          
1 68023U 26040J   26066.58334491 -.00853176  27505-3 -93413-3 0  9995
2 68023  97.2821  14.5523 0001088  97.7163  94.3211 16.09789233  2088
STARLINK-36891          
1 68024U 26040K   26066.58334491 -.00861817  28079-3 -93434-3 0  9997
2 68024  97.2821  14.5534 0001233 103.7916  90.1299 16.09942529  2086
STARLINK-36378          
1 68025U 26040L   26066.58334491 -.00834964  26560-3 -89181-3 0  9998
2 68025  97.2824  14.5549 0001118 101.9063  95.3462 16.10169237  2034
STARLINK-36884          
1 68026U 26040M   26066.58334491 -.00845539  27146-3 -90974-3 0  9992
2 68026  97.2821  14.5538 0001085 100.7112  94.9282 16.10058076  2083
STARLINK-36940          
1 68027U 26040N   26066.58334491 -.00774641  23764-3 -72185-3 0  9994
2 68027  97.2800  14.5696 0000953  99.5996 131.2159 16.12229492  2187
STARLINK-36253          
1 68028U 26040P   26066.58334491 -.01907380  11232-2 -32735-2 0  9996
2 68028  97.2808  14.5361 0001618 103.1712  53.9395 16.02604505  2185
STARLINK-36944          
1 68029U 26040Q   26066.58334491 -.00828910  26240-3 -87933-3 0  9994
2 68029  97.2815  14.5550 0001021  89.2709 109.4281 16.10273545  2087
STARLINK-36942          
1 68030U 26040R   26066.58334491 -.00835617  26679-3 -87931-3 0  9992
2 68030  97.2820  14.5559 0001097 100.4506  99.8932 16.10398319  2080
STARLINK-36913          
1 68031U 26040S   26066.58334491 -.00832082  26513-3 -86858-3 0  9990
2 68031  97.2817  14.5565 0001107 100.9544 101.0162 16.10521157  2082
STARLINK-36935          
1 68032U 26040T   26066.58334491 -.00805006  25212-3 -79612-3 0  9992
2 68032  97.2811  14.5611 0001191 105.5555 107.3119 16.11339343  2182
STARLINK-36947          
1 68033U 26040U   26066.58334491 -.00835409  26745-3 -86646-3 0  9990
2 68033  97.2817  14.5570 0001129  99.8270 103.4846 16.10620063  2087
STARLINK-36939          
1 68034U 26040V   26066.58334491 -.00809537  25378-3 -81586-3 0  9993
2 68034  97.2817  14.5595 0001173 106.0258 103.2754 16.11053906  2084
STARLINK-36943          
1 68035U 26040W   26066.58334491 -.00776673  23710-3 -74954-3 0  9997
2 68035  97.2808  14.5652 0001081 103.8723 116.4181 16.11704778  2135
STARLINK-36906          
1 68036U 26040X   26066.58334491 -.00810422  25395-3 -82220-3 0  9995
2 68036  97.2815  14.5590 0001146 102.9488 104.9821 16.10952968  2087
STARLINK-36388          
1 68037U 26040Y   26066.58334491 -.00804695  25149-3 -80287-3 0  9999
2 68037  97.2814  14.5606 0001100 101.5430 109.6793 16.11205921  2033
STARLINK-36895          
1 68038U 26040Z   26066.58334491 -.00836531  26897-3 -85416-3 0  9994
2 68038  97.2812  14.5582 0001142 102.3851 104.0538 16.10858895  2081
STARLINK-36373          
1 68039U 26040AA  26066.58334491 -.00800102  24713-3 -82562-3 0  9994
2 68039  97.2813  14.5578 0001269  99.8030 104.9153 16.10692360  2037
STARLINK-36711          
1 68040U 26041A   26066.58334491 -.01452073  63934-3 -31412-2 0  9993
2 68040  53.1597  73.0519 0000628  68.4707 168.2039 15.97792907  2033
STARLINK-36825          
1 68041U 26041B   26066.58334491 -.01449675  63915-3 -30911-2 0  9990
2 68041  53.1594  73.0453 0000643  62.2424 177.3667 15.98051771  2039
STARLINK-36925          
1 68042U 26041C   26066.58334491 -.01445757  63513-3 -31047-2 0  9993
2 68042  53.1595  73.0485 0000574  65.1721 173.0617 15.97923890  2038
STARLINK-36902          
1 68043U 26041D   26066.58334491 -.01432402  62594-3 -30368-2 0  9990
2 68043  53.1597  73.0428 0000634  63.9101 176.9511 15.98151772  2031
STARLINK-36966          
1 68044U 26041E   26066.58334491 -.01426870  62322-3 -29817-2 0  9999
2 68044  53.1595  73.0367 0000536  58.0657 185.7627 15.98408684  2037
STARLINK-36864          
1 68045U 26041F   26066.58334491 -.01433530  62781-3 -30146-2 0  9997
2 68045  53.1595  73.0396 0000542  59.9787 182.5698 15.98296937  2030
STARLINK-36321          
1 68046U 26041G   26066.58334491 -.01418502  61819-3 -29227-2 0  9999
2 68046  53.1595  73.0306 0000682  58.7067 188.1168 15.98658547  2038
STARLINK-36181          
1 68047U 26041H   26066.58334491 -.01427977  62495-3 -29629-2 0  9993
2 68047  53.1595  73.0338 0000714  67.4775 177.8331 15.98535540  1913
STARLINK-36318          
1 68048U 26041J   26066.58334491 -.01424532  62383-3 -29150-2 0  9993
2 68048  53.1596  73.0279 0000521  72.2844 175.8912 15.98782169  2034
STARLINK-36885          
1 68049U 26041K   26066.58334491 -.01415208  61811-3 -28530-2 0  9990
2 68049  53.1594  73.0211 0000615  61.8033 189.6043 15.99045148  2035
STARLINK-36945          
1 68050U 26041L   26066.58334491 -.01414494  61666-3 -28731-2 0  9999
2 68050  53.1595  73.0244 0000552  71.2139 178.6134 15.98911590  2037
